{
  "type": "FeatureCollection",
  "features": [
    {
      "type": "Feature",
      "properties": {
        "norad_id": 66174,
        "name": "HTV-X1",
        "group": "stations",
        "lat": -11.428974727207054,
        "lon": -91.04958469574302,
        "alt_km": 419.911875003103,
        "timestamp": "2025-12-25T09:48:51.040445+00:00",
        "meta_object_name": "HTV-X1",
        "meta_object_id": "2025-241A",
        "meta_epoch": "2025-12-24T17:30:08.449344",
        "meta_mean_motion": 15.49788781,
        "meta_eccentricity": 0.00031932,
        "meta_inclination": 51.6317,
        "meta_ra_of_asc_node": 83.1022,
        "meta_arg_of_pericenter": 296.2044,
        "meta_mean_anomaly": 63.8616,
        "meta_ephemeris_type": 0,
        "meta_classification_type": "U",
        "meta_norad_cat_id": 66174,
        "meta_element_set_no": 999,
        "meta_rev_at_epoch": 51,
        "meta_bstar": 0.00024880559,
        "meta_mean_motion_dot": 0.00013665,
        "meta_mean_motion_ddot": 0,
        "tle_line1": "1 66174U 25241A   25358.72926446  .00013665  00000+0  24881-3 0  9997",
        "tle_line2": "2 66174  51.6317  83.1022 0003193 296.2044  63.8616 15.49788781   512"
      },
      "geometry": {
        "type": "Point",
        "coordinates": [
          -91.04958469574302,
          -11.428974727207054
        ]
      }
    },
    {
      "type": "Feature",
      "properties": {
        "norad_id": 66515,
        "name": "SZ-21 MODULE",
        "group": "stations",
        "lat": 24.73583258446779,
        "lon": 87.28824931591942,
        "alt_km": 377.61564584285225,
        "timestamp": "2025-12-25T09:48:51.040455+00:00",
        "meta_object_name": "SZ-21 MODULE",
        "meta_object_id": "2025-246C",
        "meta_epoch": "2025-12-24T13:16:51.562848",
        "meta_mean_motion": 15.63097156,
        "meta_eccentricity": 0.00047243,
        "meta_inclination": 41.4769,
        "meta_ra_of_asc_node": 303.9494,
        "meta_arg_of_pericenter": 323.7646,
        "meta_mean_anomaly": 36.2873,
        "meta_ephemeris_type": 0,
        "meta_classification_type": "U",
        "meta_norad_cat_id": 66515,
        "meta_element_set_no": 999,
        "meta_rev_at_epoch": 629,
        "meta_bstar": 0.00031177301,
        "meta_mean_motion_dot": 0.0002901,
        "meta_mean_motion_ddot": 0,
        "tle_line1": "1 66515U 25246C   25358.55337457  .00029010  00000+0  31177-3 0  9997",
        "tle_line2": "2 66515  41.4769 303.9494 0004724 323.7646  36.2873 15.63097156  6295"
      },
      "geometry": {
        "type": "Point",
        "coordinates": [
          87.28824931591942,
          24.73583258446779
        ]
      }
    },
    {
      "type": "Feature",
      "properties": {
        "norad_id": 66645,
        "name": "SHENZHOU-22",
        "group": "stations",
        "lat": 40.37938065239321,
        "lon": 14.1325402014864,
        "alt_km": 379.52900201574175,
        "timestamp": "2025-12-25T09:48:51.040466+00:00",
        "meta_object_name": "SHENZHOU-22",
        "meta_object_id": "2025-272A",
        "meta_epoch": "2025-12-24T21:11:11.048064",
        "meta_mean_motion": 15.59651715,
        "meta_eccentricity": 0.00082343,
        "meta_inclination": 41.4683,
        "meta_ra_of_asc_node": 302.9604,
        "meta_arg_of_pericenter": 137.936,
        "meta_mean_anomaly": 222.2112,
        "meta_ephemeris_type": 0,
        "meta_classification_type": "U",
        "meta_norad_cat_id": 66645,
        "meta_element_set_no": 999,
        "meta_rev_at_epoch": 26583,
        "meta_bstar": 0.00020600017,
        "meta_mean_motion_dot": 0.00016629,
        "meta_mean_motion_ddot": 0,
        "tle_line1": "1 66645U 25272A   25358.88276676  .00016629  00000+0  20600-3 0  9992",
        "tle_line2": "2 66645  41.4683 302.9604 0008234 137.9360 222.2112 15.59651715265836"
      },
      "geometry": {
        "type": "Point",
        "coordinates": [
          14.1325402014864,
          40.37938065239321
        ]
      }
    },
    {
      "type": "Feature",
      "properties": {
        "norad_id": 66664,
        "name": "SOYUZ-MS 28",
        "group": "stations",
        "lat": -11.428977997429591,
        "lon": -91.04955608073699,
        "alt_km": 419.9118642718049,
        "timestamp": "2025-12-25T09:48:51.040476+00:00",
        "meta_object_name": "SOYUZ-MS 28",
        "meta_object_id": "2025-275A",
        "meta_epoch": "2025-12-24T17:30:08.449344",
        "meta_mean_motion": 15.49788781,
        "meta_eccentricity": 0.0003193,
        "meta_inclination": 51.6316,
        "meta_ra_of_asc_node": 83.1022,
        "meta_arg_of_pericenter": 296.2044,
        "meta_mean_anomaly": 63.8616,
        "meta_ephemeris_type": 0,
        "meta_classification_type": "U",
        "meta_norad_cat_id": 66664,
        "meta_element_set_no": 999,
        "meta_rev_at_epoch": 430,
        "meta_bstar": 0.00024881,
        "meta_mean_motion_dot": 0.00013665,
        "meta_mean_motion_ddot": 0,
        "tle_line1": "1 66664U 25275A   25358.72926446  .00013665  00000+0  24881-3 0  9998",
        "tle_line2": "2 66664  51.6316  83.1022 0003193 296.2044  63.8616 15.49788781  4306"
      },
      "geometry": {
        "type": "Point",
        "coordinates": [
          -91.04955608073699,
          -11.428977997429591
        ]
      }
    },
    {
      "type": "Feature",
      "properties": {
        "norad_id": 66906,
        "name": "1998-067XS",
        "group": "stations",
        "lat": -50.407513418897985,
        "lon": 6.2351351305320915,
        "alt_km": 415.829127173537,
        "timestamp": "2025-12-25T09:48:51.040486+00:00",
        "meta_object_name": "1998-067XS",
        "meta_object_id": "1998-067XS",
        "meta_epoch": "2025-12-24T12:30:34.892352",
        "meta_mean_motion": 15.51195693,
        "meta_eccentricity": 0.00027903,
        "meta_inclination": 51.6318,
        "meta_ra_of_asc_node": 83.9644,
        "meta_arg_of_pericenter": 262.1551,
        "meta_mean_anomaly": 97.9122,
        "meta_ephemeris_type": 0,
        "meta_classification_type": "U",
        "meta_norad_cat_id": 66906,
        "meta_element_set_no": 999,
        "meta_rev_at_epoch": 344,
        "meta_bstar": 0.00051725581,
        "meta_mean_motion_dot": 0.00030459,
        "meta_mean_motion_ddot": 0,
        "tle_line1": "1 66906U 98067XS  25358.52123718  .00030459  00000+0  51726-3 0  9993",
        "tle_line2": "2 66906  51.6318  83.9644 0002790 262.1551  97.9122 15.51195693  3443"
      },
      "geometry": {
        "type": "Point",
        "coordinates": [
          6.2351351305320915,
          -50.407513418897985
        ]
      }
    },
    {
      "type": "Feature",
      "properties": {
        "norad_id": 66907,
        "name": "1998-067XT",
        "group": "stations",
        "lat": -3.2562050530440207,
        "lon": 76.815130435199,
        "alt_km": 407.5573534699479,
        "timestamp": "2025-12-25T09:48:51.040496+00:00",
        "meta_object_name": "1998-067XT",
        "meta_object_id": "1998-067XT",
        "meta_epoch": "2025-12-24T10:39:56.166048",
        "meta_mean_motion": 15.52879993,
        "meta_eccentricity": 0.00038856,
        "meta_inclination": 51.6313,
        "meta_ra_of_asc_node": 84.2012,
        "meta_arg_of_pericenter": 298.2919,
        "meta_mean_anomaly": 61.7678,
        "meta_ephemeris_type": 0,
        "meta_classification_type": "U",
        "meta_norad_cat_id": 66907,
        "meta_element_set_no": 999,
        "meta_rev_at_epoch": 343,
        "meta_bstar": 0.0010726177,
        "meta_mean_motion_dot": 0.00067981,
        "meta_mean_motion_ddot": 0,
        "tle_line1": "1 66907U 98067XT  25358.44440007  .00067981  00000+0  10726-2 0  9992",
        "tle_line2": "2 66907  51.6313  84.2012 0003885 298.2919  61.7678 15.52879993  3433"
      },
      "geometry": {
        "type": "Point",
        "coordinates": [
          76.815130435199,
          -3.2562050530440207
        ]
      }
    },
    {
      "type": "Feature",
      "properties": {
        "norad_id": 66908,
        "name": "1998-067XU",
        "group": "stations",
        "lat": 1.5949070506934988,
        "lon": 80.64915717995899,
        "alt_km": 406.9586132411996,
        "timestamp": "2025-12-25T09:48:51.040505+00:00",
        "meta_object_name": "1998-067XU",
        "meta_object_id": "1998-067XU",
        "meta_epoch": "2025-12-24T10:38:25.805472",
        "meta_mean_motion": 15.52977314,
        "meta_eccentricity": 0.00038638,
        "meta_inclination": 51.6323,
        "meta_ra_of_asc_node": 84.1936,
        "meta_arg_of_pericenter": 296.7785,
        "meta_mean_anomaly": 63.2809,
        "meta_ephemeris_type": 0,
        "meta_classification_type": "U",
        "meta_norad_cat_id": 66908,
        "meta_element_set_no": 999,
        "meta_rev_at_epoch": 343,
        "meta_bstar": 0.0010585814,
        "meta_mean_motion_dot": 0.00067317,
        "meta_mean_motion_ddot": 0,
        "tle_line1": "1 66908U 98067XU  25358.44335423  .00067317  00000+0  10586-2 0  9995",
        "tle_line2": "2 66908  51.6323  84.1936 0003863 296.7785  63.2809 15.52977314  3438"
      },
      "geometry": {
        "type": "Point",
        "coordinates": [
          80.64915717995899,
          1.5949070506934988
        ]
      }
    }
  ]
}